CCSDS_OMM_VERS = 2.0
CREATION_DATE  = 
ORIGINATOR     = 

OBJECT_NAME    = IDEFIX & ARIANE 42P R/B
OBJECT_ID      = 2002-021B
CENTER_NAME    = EARTH
REF_FRAME      = TEME
TIME_SYSTEM    = UTC
MEAN_ELEMENT_THEORY = SGP/SGP4

EPOCH          = 2026-02-07T20:23:23.596224
MEAN_MOTION    = 14.31004501
ECCENTRICITY   = .00106931
INCLINATION    = 98.5841
RA_OF_ASC_NODE = 337.8184
ARG_OF_PERICENTER = 276.8822
MEAN_ANOMALY   = 83.1145

EPHEMERIS_TYPE = 0
CLASSIFICATION_TYPE = U
NORAD_CAT_ID   = 27422
ELEMENT_SET_NO = 999
REV_AT_EPOCH   = 23975
BSTAR          = .1745656E-3
MEAN_MOTION_DOT = .416E-5
MEAN_MOTION_DDOT = 0

CCSDS_OMM_VERS = 2.0
CREATION_DATE  = 
ORIGINATOR     = 

OBJECT_NAME    = AQUA
OBJECT_ID      = 2002-022A
CENTER_NAME    = EARTH
REF_FRAME      = TEME
TIME_SYSTEM    = UTC
MEAN_ELEMENT_THEORY = SGP/SGP4

EPOCH          = 2026-02-07T21:53:21.889824
MEAN_MOTION    = 14.61901895
ECCENTRICITY   = .00015333
INCLINATION    = 98.4122
RA_OF_ASC_NODE = 5.7476
ARG_OF_PERICENTER = 53.5027
MEAN_ANOMALY   = 8.2087

EPHEMERIS_TYPE = 0
CLASSIFICATION_TYPE = U
NORAD_CAT_ID   = 27424
ELEMENT_SET_NO = 999
REV_AT_EPOCH   = 26438
BSTAR          = .28094957E-3
MEAN_MOTION_DOT = .1356E-4
MEAN_MOTION_DDOT = 0

CCSDS_OMM_VERS = 2.0
CREATION_DATE  = 
ORIGINATOR     = 

OBJECT_NAME    = CZ-4B R/B
OBJECT_ID      = 2002-024C
CENTER_NAME    = EARTH
REF_FRAME      = TEME
TIME_SYSTEM    = UTC
MEAN_ELEMENT_THEORY = SGP/SGP4

EPOCH          = 2026-02-07T17:41:56.018688
MEAN_MOTION    = 14.14542188
ECCENTRICITY   = .00511485
INCLINATION    = 98.8905
RA_OF_ASC_NODE = 92.2854
ARG_OF_PERICENTER = 107.8661
MEAN_ANOMALY   = 1.6113

EPHEMERIS_TYPE = 0
CLASSIFICATION_TYPE = U
NORAD_CAT_ID   = 27432
ELEMENT_SET_NO = 999
REV_AT_EPOCH   = 22500
BSTAR          = .45613525E-4
MEAN_MOTION_DOT = .45E-6
MEAN_MOTION_DDOT = 0

CCSDS_OMM_VERS = 2.0
CREATION_DATE  = 
ORIGINATOR     = 

OBJECT_NAME    = MIDORI II (ADEOS-II)
OBJECT_ID      = 2002-056A
CENTER_NAME    = EARTH
REF_FRAME      = TEME
TIME_SYSTEM    = UTC
MEAN_ELEMENT_THEORY = SGP/SGP4

EPOCH          = 2026-02-07T21:52:27.424128
MEAN_MOTION    = 14.29262129
ECCENTRICITY   = .00021293
INCLINATION    = 98.7717
RA_OF_ASC_NODE = 357.1939
ARG_OF_PERICENTER = 84.7966
MEAN_ANOMALY   = 275.3458

EPHEMERIS_TYPE = 0
CLASSIFICATION_TYPE = U
NORAD_CAT_ID   = 27597
ELEMENT_SET_NO = 999
REV_AT_EPOCH   = 20604
BSTAR          = .18230459E-3
MEAN_MOTION_DOT = .418E-5
MEAN_MOTION_DDOT = 0

CCSDS_OMM_VERS = 2.0
CREATION_DATE  = 
ORIGINATOR     = 

OBJECT_NAME    = H-2A R/B
OBJECT_ID      = 2002-056E
CENTER_NAME    = EARTH
REF_FRAME      = TEME
TIME_SYSTEM    = UTC
MEAN_ELEMENT_THEORY = SGP/SGP4

EPOCH          = 2026-02-07T21:48:24.147648
MEAN_MOTION    = 14.33739178
ECCENTRICITY   = .00690325
INCLINATION    = 98.3149
RA_OF_ASC_NODE = 0.4180
ARG_OF_PERICENTER = 250.1156
MEAN_ANOMALY   = 173.7165

EPHEMERIS_TYPE = 0
CLASSIFICATION_TYPE = U
NORAD_CAT_ID   = 27601
ELEMENT_SET_NO = 999
REV_AT_EPOCH   = 20984
BSTAR          = .15383657E-3
MEAN_MOTION_DOT = .396E-5
MEAN_MOTION_DDOT = 0

CCSDS_OMM_VERS = 2.0
CREATION_DATE  = 
ORIGINATOR     = 

OBJECT_NAME    = CZ-4B R/B
OBJECT_ID      = 2003-049C
CENTER_NAME    = EARTH
REF_FRAME      = TEME
TIME_SYSTEM    = UTC
MEAN_ELEMENT_THEORY = SGP/SGP4

EPOCH          = 2026-02-07T22:48:57.145824
MEAN_MOTION    = 14.54986943
ECCENTRICITY   = .0047504
INCLINATION    = 98.6848
RA_OF_ASC_NODE = 32.6968
ARG_OF_PERICENTER = 323.6614
MEAN_ANOMALY   = 36.1359

EPHEMERIS_TYPE = 0
CLASSIFICATION_TYPE = U
NORAD_CAT_ID   = 28059
ELEMENT_SET_NO = 999
REV_AT_EPOCH   = 18227
BSTAR          = .15226808E-3
MEAN_MOTION_DOT = .613E-5
MEAN_MOTION_DDOT = 0

CCSDS_OMM_VERS = 2.0
CREATION_DATE  = 
ORIGINATOR     = 

OBJECT_NAME    = CZ-2C R/B
OBJECT_ID      = 2004-012C
CENTER_NAME    = EARTH
REF_FRAME      = TEME
TIME_SYSTEM    = UTC
MEAN_ELEMENT_THEORY = SGP/SGP4

EPOCH          = 2026-02-07T16:55:46.007040
MEAN_MOTION    = 15.61108805
ECCENTRICITY   = .00160863
INCLINATION    = 97.7304
RA_OF_ASC_NODE = 101.2302
ARG_OF_PERICENTER = 63.5659
MEAN_ANOMALY   = 296.7246

EPHEMERIS_TYPE = 0
CLASSIFICATION_TYPE = U
NORAD_CAT_ID   = 28222
ELEMENT_SET_NO = 999
REV_AT_EPOCH   = 19959
BSTAR          = .78388602E-3
MEAN_MOTION_DOT = .66773E-3
MEAN_MOTION_DDOT = 0

CCSDS_OMM_VERS = 2.0
CREATION_DATE  = 
ORIGINATOR     = 

OBJECT_NAME    = SL-16 R/B
OBJECT_ID      = 2004-021B
CENTER_NAME    = EARTH
REF_FRAME      = TEME
TIME_SYSTEM    = UTC
MEAN_ELEMENT_THEORY = SGP/SGP4

EPOCH          = 2026-02-07T23:16:35.268960
MEAN_MOTION    = 14.14589793
ECCENTRICITY   = .00029098
INCLINATION    = 71.0000
RA_OF_ASC_NODE = 294.8651
ARG_OF_PERICENTER = 84.2653
MEAN_ANOMALY   = 275.8801

EPHEMERIS_TYPE = 0
CLASSIFICATION_TYPE = U
NORAD_CAT_ID   = 28353
ELEMENT_SET_NO = 999
REV_AT_EPOCH   = 11863
BSTAR          = .75958324E-4
MEAN_MOTION_DOT = .98E-6
MEAN_MOTION_DDOT = 0

CCSDS_OMM_VERS = 2.0
CREATION_DATE  = 
ORIGINATOR     = 

OBJECT_NAME    = CZ-4B R/B
OBJECT_ID      = 2004-035C
CENTER_NAME    = EARTH
REF_FRAME      = TEME
TIME_SYSTEM    = UTC
MEAN_ELEMENT_THEORY = SGP/SGP4

EPOCH          = 2026-02-07T16:04:07.893984
MEAN_MOTION    = 15.28508273
ECCENTRICITY   = .00341859
INCLINATION    = 97.3549
RA_OF_ASC_NODE = 73.2781
ARG_OF_PERICENTER = 76.2372
MEAN_ANOMALY   = 284.2669

EPHEMERIS_TYPE = 0
CLASSIFICATION_TYPE = U
NORAD_CAT_ID   = 28415
ELEMENT_SET_NO = 999
REV_AT_EPOCH   = 17532
BSTAR          = .38494249E-3
MEAN_MOTION_DOT = .10795E-3
MEAN_MOTION_DDOT = 0

CCSDS_OMM_VERS = 2.0
CREATION_DATE  = 
ORIGINATOR     = 

OBJECT_NAME    = CZ-2C R/B
OBJECT_ID      = 2004-046B
CENTER_NAME    = EARTH
REF_FRAME      = TEME
TIME_SYSTEM    = UTC
MEAN_ELEMENT_THEORY = SGP/SGP4

EPOCH          = 2026-02-07T18:07:19.458048
MEAN_MOTION    = 14.26981540
ECCENTRICITY   = .01382762
INCLINATION    = 98.1995
RA_OF_ASC_NODE = 315.5981
ARG_OF_PERICENTER = 243.2277
MEAN_ANOMALY   = 115.4703

EPHEMERIS_TYPE = 0
CLASSIFICATION_TYPE = U
NORAD_CAT_ID   = 28480
ELEMENT_SET_NO = 999
REV_AT_EPOCH   = 10423
BSTAR          = .92439869E-4
MEAN_MOTION_DOT = .206E-5
MEAN_MOTION_DDOT = 0

CCSDS_OMM_VERS = 2.0
CREATION_DATE  = 
ORIGINATOR     = 

OBJECT_NAME    = ARIANE 5 R/B
OBJECT_ID      = 2004-049H
CENTER_NAME    = EARTH
REF_FRAME      = TEME
TIME_SYSTEM    = UTC
MEAN_ELEMENT_THEORY = SGP/SGP4

EPOCH          = 2026-02-07T22:08:32.762688
MEAN_MOTION    = 14.85204428
ECCENTRICITY   = .00855075
INCLINATION    = 98.2579
RA_OF_ASC_NODE = 206.2761
ARG_OF_PERICENTER = 87.6354
MEAN_ANOMALY   = 273.4647

EPHEMERIS_TYPE = 0
CLASSIFICATION_TYPE = U
NORAD_CAT_ID   = 28499
ELEMENT_SET_NO = 999
REV_AT_EPOCH   = 14137
BSTAR          = .14689245E-3
MEAN_MOTION_DOT = .128E-4
MEAN_MOTION_DDOT = 0

CCSDS_OMM_VERS = 2.0
CREATION_DATE  = 
ORIGINATOR     = 

OBJECT_NAME    = CZ-2D R/B
OBJECT_ID      = 2005-024B
CENTER_NAME    = EARTH
REF_FRAME      = TEME
TIME_SYSTEM    = UTC
MEAN_ELEMENT_THEORY = SGP/SGP4

EPOCH          = 2026-02-07T14:25:54.845472
MEAN_MOTION    = 15.57518842
ECCENTRICITY   = .0007346
INCLINATION    = 97.3623
RA_OF_ASC_NODE = 52.7065
ARG_OF_PERICENTER = 119.3364
MEAN_ANOMALY   = 240.8626

EPHEMERIS_TYPE = 0
CLASSIFICATION_TYPE = U
NORAD_CAT_ID   = 28738
ELEMENT_SET_NO = 999
REV_AT_EPOCH   = 13509
BSTAR          = .5937E-3
MEAN_MOTION_DOT = .43791E-3
MEAN_MOTION_DDOT = 0

