IDEFIX & ARIANE 42P R/B 
1 27422U 02021B   26038.84957866  .00000416  00000+0  17457-3 0  9991
2 27422  98.5841 337.8184 0010693 276.8822  83.1145 14.31004501239759
AQUA                    
1 27424U 02022A   26038.91205891  .00001356  00000+0  28095-3 0  9990
2 27424  98.4122   5.7476 0001533  53.5027   8.2087 14.61901895264382
CZ-4B R/B               
1 27432U 02024C   26038.73745392  .00000045  00000+0  45614-4 0  9997
2 27432  98.8905  92.2854 0051148 107.8661   1.6113 14.14542188225006
MIDORI II (ADEOS-II)    
1 27597U 02056A   26038.91142852  .00000418  00000+0  18230-3 0  9993
2 27597  98.7717 357.1939 0002129  84.7966 275.3458 14.29262129206046
H-2A R/B                
1 27601U 02056E   26038.90861282  .00000396  00000+0  15384-3 0  9995
2 27601  98.3149   0.4180 0069032 250.1156 173.7165 14.33739178209844
CZ-4B R/B               
1 28059U 03049C   26038.95066141  .00000613  00000+0  15227-3 0  9990
2 28059  98.6848  32.6968 0047504 323.6614  36.1359 14.54986943182278
CZ-2C R/B               
1 28222U 04012C   26038.70539360  .00066773  00000+0  78389-3 0  9991
2 28222  97.7304 101.2302 0016086  63.5659 296.7246 15.61108805199596
SL-16 R/B               
1 28353U 04021B   26038.96985265  .00000098  00000+0  75958-4 0  9991
2 28353  71.0000 294.8651 0002909  84.2653 275.8801 14.14589793118635
CZ-4B R/B               
1 28415U 04035C   26038.66953581  .00010795  00000+0  38494-3 0  9996
2 28415  97.3549  73.2781 0034185  76.2372 284.2669 15.28508273175321
CZ-2C R/B               
1 28480U 04046B   26038.75508632  .00000206  00000+0  92440-4 0  9991
2 28480  98.1995 315.5981 0138276 243.2277 115.4703 14.26981540104232
ARIANE 5 R/B            
1 28499U 04049H   26038.92260142  .00001280  00000+0  14689-3 0  9995
2 28499  98.2579 206.2761 0085507  87.6354 273.4647 14.85204428141373
CZ-2D R/B               
1 28738U 05024B   26038.60132923  .00043791  00000+0  59370-3 0  9994
2 28738  97.3623  52.7065 0007346 119.3364 240.8626 15.57518842135094
